ONEWEB-0597             
1 54663U 22166X   25299.68846779  .00000131  00000+0  28683-3 0  9997
2 54663  87.9168 290.5790 0001760  86.8280 273.3056 13.21825721140691
ONEWEB-0600             
1 54664U 22166Y   25299.51896694  .00000000  00000+0 -32608-4 0  9990
2 54664  87.9167 290.6035 0001745  90.7065 269.4269 13.21825252140648
ONEWEB-0601             
1 54665U 22166Z   25299.73783000 -.00000078  00000+0 -21922-3 0  9993
2 54665  87.9168 290.5778 0001608  83.1925 276.9392 13.21825407140868
ONEWEB-0602             
1 54666U 22166AA  25299.70242213  .00000040  00000+0  65939-4 0  9991
2 54666  87.9170 290.5881 0001671  99.0450 261.0873 13.21823933140700
ONEWEB-0603             
1 54667U 22166AB  25299.70820753  .00000024  00000+0  26425-4 0  9992
2 54667  87.9178 290.5227 0001730  88.8217 271.3115 13.21824873140635
ONEWEB-0604             
1 54668U 22166AC  25299.69665845  .00000041  00000+0  67179-4 0  9990
2 54668  87.9168 290.5486 0001681  90.5338 269.5989 13.21826034140595
ONEWEB-0605             
1 54669U 22166AD  25299.69010635  .00000262  00000+0  60395-3 0  9999
2 54669  87.9167 290.5789 0001615  68.7281 291.4025 13.21824506140667
ONEWEB-0606             
1 54670U 22166AE  25299.48441019  .00000239  00000+0  54718-3 0  9998
2 54670  87.9168 290.6301 0002071  89.4779 270.6592 13.21826296140699
